TSELINA-D_L_00001001-01
1 10000U 25930RM  26075.69960648  .00000000  00000+0  00000-0 0  9997
2 10000  82.5000   0.0000 0000000   0.0000   0.0000 14.73473854    15
